{
  "norad_id": 68457,
  "name": "TRANSPORTER-16 OBJECT AT",
  "history": [
    {
      "epoch": "2026-04-14T03:12:23.414112Z",
      "apogee_km": 512.4171921296711,
      "perigee_km": 509.63810311082034,
      "latitude_deg": 5.5188841300942635e-05,
      "longitude_deg": 173.15613413016575,
      "height_km": 515.153166647635,
      "semi_major_axis_km": 6889.164647620245,
      "eccentricity": 0.0002017,
      "inclination_deg": 97.4494,
      "raan_deg": 63.5681,
      "arg_perigee_deg": 138.4965,
      "mean_anomaly_deg": 221.6423,
      "mean_motion_rev_day": 15.18283651
    }
  ]
}