{"fetched_at":"2026-04-16T06:04:01Z","count":5425,"tles":[{"name":"TRANSPORTER-16 OBJECT AT","line1":"1 68457U 26067AT  26104.13360433  .00005750  00000+0  28374-3 0  9990","line2":"2 68457  97.4494  63.5681 0002017 138.4965 221.6423 15.18283651  2220","category":"Other"}]}